BUFENG 1A               
1 44310U 19032A   26068.91906837  .00016103  00000+0  62414-3 0  9992
2 44310  44.9758 238.6688 0005472  55.4463 304.6935 15.26012088372013
STARLINK-31612          
1 59337U 24057T   26068.39396130  .00000716  00000+0  35552-4 0  9998
2 59337  43.0000 188.7578 0001722 286.8576  73.2087 15.27578998109798
